SPACEBEE-5              
1 43817U 18099BM  22271.66727351  .00010986  00000+0  82587-3 0  9997
2 43817  97.6270 341.0405 0004531 253.8572 106.2155 15.02730598208266
SPACEBEE-6              
1 43818U 18099BN  22271.42239766  .00006061  00000+0  49784-3 0  9991
2 43818  97.6241 338.2986 0010289 270.3441  89.6603 14.99504967208269
SHIELDS 1               
1 43850U 18104B   22271.20678577  .00004961  00000+0  20157-3 0  9997
2 43850  85.0313 344.0146 0011844 242.0903 117.9141 15.24233471210157
STF-1                   
1 43852U 18104D   22271.25279954  .00013471  00000+0  48415-3 0  9993
2 43852  85.0332 343.9570 0010359 253.8794 106.1311 15.28464404210231
ZACUBE-2                
1 43907U 18111AH  22271.75681507  .00008452  00000+0  29943-3 0  9996
2 43907  97.1738 154.3962 0021200  72.9629  13.7860 15.29131290209076
LUME 1                  
1 43908U 18111AJ  22271.43719782  .00012340  00000+0  39767-3 0  9995
2 43908  97.1744 156.0352 0019687  68.6324 291.7017 15.32127444209157
AOBA VELOX-IV           
1 43940U 19003J   22271.03377515  .00040976  00000+0  94455-3 0  9993
2 43940  97.1172 304.1414 0017629 130.2312 230.0482 15.42307849205912
MOVE-IIB                
1 44398U 19038N   22271.54564078  .00014096  00000+0  63973-3 0  9992
2 44398  97.6382 242.0249 0021875 124.5032 235.8276 15.20702424178699
SONATE                  
1 44400U 19038Q   22271.55712397  .00005189  00000+0  27612-3 0  9999
2 44400  97.6493 240.6359 0024246 133.5939 226.7312 15.15442557178549
LUCKY-7                 
1 44406U 19038W   22271.55386754  .00006765  00000+0  34790-3 0  9995
2 44406  97.6500 241.2697 0023753 131.4086 228.9193 15.16540058178589
BEESAT 9                
1 44412U 19038AC  22271.44718817  .00011127  00000+0  54271-3 0  9993
2 44412  97.6468 241.6407 0021329 133.5739 226.7270 15.18281750178313
JAISAT-1                
1 44419U 19038F   22271.46671459  .00010674  00000+0  51405-3 0  9994
2 44419  97.6472 242.5774 0020405 130.6034 229.6979 15.18751519178685
DUCHIFAT-3              
1 44854U 19089C   22271.86408483  .00004185  00000+0  32162-3 0  9991
2 44854  36.9649 207.0152 0008870 336.8744  60.2311 15.01684860153482
EYESAT-NANO             
1 44877U 19092E   22271.50821146  .00012416  00000+0  50857-3 0  9993
2 44877  97.4644  95.2974 0011036   1.7053 358.4220 15.24381494154059
ORBITAL FACTORY 2 (OF-2)
1 45113U 19071C   22271.22272501  .00043264  00000+0  74491-3 0  9993
2 45113  51.6357 271.9105 0007105 176.6387 183.4651 15.50615115149292
M2 PATHFINDER           
1 45727U 20037E   22271.48998858  .00001520  00000+0  15426-3 0  9998
2 45727  97.7395  85.1275 0013304  53.5195 306.7292 14.92263867122196
NETSAT-4                
1 46504U 20068U   22271.58898309  .00003515  00000+0  25910-3 0  9992
2 46504  97.7287 211.2389 0012655 346.6204  13.4780 15.03915903109549
NETSAT-3                
1 46505U 20068V   22271.40773919  .00002616  00000+0  19428-3 0  9991
2 46505  97.7298 210.9635 0011431 357.5709   2.5459 15.03872391109527
NETSAT-1                
1 46506U 20068W   22271.56121971  .00003355  00000+0  24832-3 0  9990
2 46506  97.7293 211.0349 0009472   9.1366 351.0027 15.03817912109541
NETSAT-2                
1 46507U 20068X   22271.57203139  .00003981  00000+0  29394-3 0  9992
2 46507  97.7274 211.0346 0008706  13.1163 347.0406 15.03807010109495
SAI-1 NANOCONNECT-2     
1 47701U 21015C   22271.16807764  .00016723  00000+0  58841-3 0  9998
2 47701  97.4160 347.6955 0012062  92.0940 268.1681 15.29340354 87904
WILDTRACKCUBE-SIMBA     
1 47941U 21022K   22271.79493920  .00004170  00000+0  27489-3 0  9993
2 47941  97.5185 169.0871 0021537 148.9448 298.4632 15.07843762 83569
BEESAT-6                
1 47957U 21022AB  22271.69640469  .00006588  00000+0  41029-3 0  9992
2 47957  97.5180 169.2980 0020448 147.5215 241.8955 15.09733396 83373
SMOG-1                  
1 47964U 21022AJ  22271.24706407  .00009083  00000+0  54199-3 0  9991
2 47964  97.5178 170.1313 0019281 137.8589 222.4128 15.11205592 82403
MMSATS-1                
1 47976U 98067SJ  22271.70616347  .00033923  00000+0  35844-3 0  9997
2 47976  51.6395 164.7092 0001870  94.2018 294.7609 15.63859661 86396
BCCSAT-1                
1 48041U 21022AK  22271.49168120  .00007062  00000+0  43410-3 0  9998
2 48041  97.5175 169.8614 0016031 135.2750 224.9775 15.10252462 82387
BEESAT-5                
1 48083U 21022AM  22271.67715152  .00007406  00000+0  45743-3 0  9990
2 48083  97.5100 169.2880 0020676 147.4585 243.4328 15.09991341 82509
BEESAT-7                
1 48084U 21022AN  22271.17991188  .00006856  00000+0  42562-3 0  9995
2 48084  97.5153 168.8035 0020494 149.9646   4.3582 15.09835999 82016
BEESAT-8                
1 48085U 21022AP  22271.69451164  .00005711  00000+0  35707-3 0  9990
2 48085  97.5165 169.2950 0020476 148.0091 240.6131 15.09651770 82653
RAMSAT                  
1 48850U 98067SL  22271.69083310  .00397331  76788-4  83455-3 0  9993
2 48850  51.6302 142.7138 0005536 209.1605 150.9096 15.98337051 73655
LEDSAT                  
1 49069U 21073D   22271.16446497  .00004771  00000+0  30072-3 0  9999
2 49069  97.5156 342.0209 0025394 304.1338  55.7482 15.09351670 61328
BINAR-1                 
1 49272U 98067SR  22271.69507108  .02327586  11862-4  10828-2 0  9990
2 49272  51.6159 144.0803 0009098 249.6181 110.3861 16.20870557 56024
HSU-SAT1                
1 53462U 98067UB  22271.78901267  .00040834  00000+0  62528-3 0  9998
2 53462  51.6396 182.5610 0004973 303.5401  56.5114 15.53925109  7373
FUTABA                  
1 53463U 98067UC  22271.58774799  .00048149  00000+0  72006-3 0  9994
2 53463  51.6391 183.4681 0004748 300.4030  59.6491 15.54502430  7349
TUMNANOSAT              
1 53464U 98067UD  22271.19404940  .00064707  00000+0  94472-3 0  9999
2 53464  51.6393 185.3376 0004566 296.3454  63.7068 15.55033463  7280
